STARLING 4              
1 57386U 23100A   26066.02836485 -.00000009  00000+0  55676-5 0  9994
2 57386  99.5115  59.9711 0007803  83.0949 277.1159 15.06148396144525
STARLINK-35296          
1 65801U 25218L   26068.62538234  .00002745  00000+0  19440-3 0  9991
2 65801  97.6028 292.9464 0002210  80.1390 280.0086 15.05649542 24962
